LANDSAT 9               
1 49260U 21088A   24262.21830082  .00001461  00000+0  33416-3 0  9991
2 49260  98.2240 330.6611 0001280  86.3166 273.8178 14.57120954158232
